VCC B                   
1 44431U 98067QR  20111.15677579  .00008974  00000-0  13201-3 0  9996
2 44431  51.6392 267.3795 0002973 120.8839 239.2445 15.56271506 45360
ATL-1                   
1 44830U 19084G   20111.67265530  .00061248  00000-0  43187-3 0  9997
2 44830  96.9843 340.4668 0033042  99.3089 261.1915 15.73119023 21359
SMOG-P                  
1 44832U 19084J   20111.57919700  .00059791  00000-0  40992-3 0  9994
2 44832  96.9853 340.4534 0032060  98.4982 261.9919 15.73820183 21342
DUCHIFAT-3              
1 44854U 19089C   20111.27827503  .00000400  00000-0  38782-4 0  9997
2 44854  36.9669  82.1441 0009323 310.8574  49.1353 14.99026504 19567
ORBITAL FACTORY 2 (OF-2)
1 45113U 19071C   20111.73603748  .00002578  00000-0  90738-4 0  9998
2 45113  51.6428 282.3218 0012903 207.2572 152.7734 15.33139638 12271
